ORBCOMM FM01            
1 23545U 95017A   25326.58499944  .00008923  00000+0  87099-3 0  9998
2 23545  69.9639  38.5193 0001963 359.7497   0.3658 14.92691867636128
ORBCOMM FM08            
1 25112U 97084A   25325.97078014  .00001824  00000+0  54187-3 0  9994
2 25112  45.0144 330.1043 0007995 316.4644  43.5576 14.46479327464217
ORBCOMM FM10            
1 25113U 97084B   25326.52879124  .00001662  00000+0  49974-3 0  9996
2 25113  45.0156 330.0920 0006941 291.4557  68.5554 14.46238255639433
ORBCOMM FM11            
1 25114U 97084C   25326.49214169  .00001750  00000+0  52687-3 0  9998
2 25114  45.0142 331.1937 0007720 292.3436  67.6597 14.45978532464386
ORBCOMM FM12            
1 25115U 97084D   25326.45241431  .00001652  00000+0  49944-3 0  9990
2 25115  45.0147 331.1187 0006840 289.6482  70.3631 14.46002133464174
ORBCOMM FM09            
1 25116U 97084E   25326.49938779  .00001496  00000+0  45756-3 0  9996
2 25116  45.0151 331.9953 0008018 281.6840  78.3112 14.45850487464385
